{
  "type": "FeatureCollection",
  "features": [
    {
      "type": "Feature",
      "properties": {
        "norad_id": 40894,
        "name": "GAOFEN-9 01",
        "group": "resource",
        "lat": 19.07962637376371,
        "lon": -161.62863569241242,
        "alt_km": 623.2667746235702,
        "timestamp": "2025-12-02T07:10:08.766534+00:00",
        "meta_object_name": "GAOFEN-9 01",
        "meta_object_id": "2015-047A",
        "meta_epoch": "2025-12-01T20:43:46.502688",
        "meta_mean_motion": 14.82376273,
        "meta_eccentricity": 0.0028991,
        "meta_inclination": 97.6557,
        "meta_ra_of_asc_node": 15.2885,
        "meta_arg_of_pericenter": 68.5404,
        "meta_mean_anomaly": 291.8898,
        "meta_ephemeris_type": 0,
        "meta_classification_type": "U",
        "meta_norad_cat_id": 40894,
        "meta_element_set_no": 999,
        "meta_rev_at_epoch": 55095,
        "meta_bstar": 0.0001669,
        "meta_mean_motion_dot": 1.295e-05,
        "meta_mean_motion_ddot": 0,
        "tle_line1": "1 40894U 15047A   25335.86373267  .00001295  00000+0  16690-3 0  9993",
        "tle_line2": "2 40894  97.6557  15.2885 0028991  68.5404 291.8898 14.82376273550953"
      },
      "geometry": {
        "type": "Point",
        "coordinates": [
          -161.62863569241242,
          19.07962637376371
        ]
      }
    },
    {
      "type": "Feature",
      "properties": {
        "norad_id": 41026,
        "name": "YAOGAN-28",
        "group": "resource",
        "lat": -2.798060734364824,
        "lon": -65.97005097039263,
        "alt_km": 489.5140627829942,
        "timestamp": "2025-12-02T07:10:08.766545+00:00",
        "meta_object_name": "YAOGAN-28",
        "meta_object_id": "2015-064A",
        "meta_epoch": "2025-12-01T20:54:56.989152",
        "meta_mean_motion": 15.24054741,
        "meta_eccentricity": 0.0011813,
        "meta_inclination": 97.2793,
        "meta_ra_of_asc_node": 113.9731,
        "meta_arg_of_pericenter": 162.4208,
        "meta_mean_anomaly": 197.7441,
        "meta_ephemeris_type": 0,
        "meta_classification_type": "U",
        "meta_norad_cat_id": 41026,
        "meta_element_set_no": 999,
        "meta_rev_at_epoch": 56059,
        "meta_bstar": 0.0004317,
        "meta_mean_motion_dot": 0.00010429,
        "meta_mean_motion_ddot": 0,
        "tle_line1": "1 41026U 15064A   25335.87149293  .00010429  00000+0  43170-3 0  9993",
        "tle_line2": "2 41026  97.2793 113.9731 0011813 162.4208 197.7441 15.24054741560595"
      },
      "geometry": {
        "type": "Point",
        "coordinates": [
          -65.97005097039263,
          -2.798060734364824
        ]
      }
    },
    {
      "type": "Feature",
      "properties": {
        "norad_id": 41038,
        "name": "YAOGAN-29",
        "group": "resource",
        "lat": 29.670250138433538,
        "lon": -5.172447106122552,
        "alt_km": 618.2741333574859,
        "timestamp": "2025-12-02T07:10:08.766555+00:00",
        "meta_object_name": "YAOGAN-29",
        "meta_object_id": "2015-069A",
        "meta_epoch": "2025-12-01T21:19:02.767872",
        "meta_mean_motion": 14.82862445,
        "meta_eccentricity": 8.75e-05,
        "meta_inclination": 98.023,
        "meta_ra_of_asc_node": 359.0246,
        "meta_arg_of_pericenter": 11.6665,
        "meta_mean_anomaly": 348.4568,
        "meta_ephemeris_type": 0,
        "meta_classification_type": "U",
        "meta_norad_cat_id": 41038,
        "meta_element_set_no": 999,
        "meta_rev_at_epoch": 54138,
        "meta_bstar": 7.2946e-05,
        "meta_mean_motion_dot": 5.37e-06,
        "meta_mean_motion_ddot": 0,
        "tle_line1": "1 41038U 15069A   25335.88822648  .00000537  00000+0  72946-4 0  9997",
        "tle_line2": "2 41038  98.0230 359.0246 0000875  11.6665 348.4568 14.82862445541387"
      },
      "geometry": {
        "type": "Point",
        "coordinates": [
          -5.172447106122552,
          29.670250138433538
        ]
      }
    },
    {
      "type": "Feature",
      "properties": {
        "norad_id": 41167,
        "name": "KENT RIDGE 1",
        "group": "resource",
        "lat": 14.600708940875874,
        "lon": 5.5614906717681105,
        "alt_km": 496.9166559994328,
        "timestamp": "2025-12-02T07:10:08.766565+00:00",
        "meta_object_name": "KENT RIDGE 1",
        "meta_object_id": "2015-077B",
        "meta_epoch": "2025-12-01T05:39:27.328608",
        "meta_mean_motion": 15.21492496,
        "meta_eccentricity": 0.00087356,
        "meta_inclination": 14.9809,
        "meta_ra_of_asc_node": 296.4925,
        "meta_arg_of_pericenter": 328.0213,
        "meta_mean_anomaly": 31.9579,
        "meta_ephemeris_type": 0,
        "meta_classification_type": "U",
        "meta_norad_cat_id": 41167,
        "meta_element_set_no": 999,
        "meta_rev_at_epoch": 55088,
        "meta_bstar": 0.00020076422,
        "meta_mean_motion_dot": 5.412e-05,
        "meta_mean_motion_ddot": 0,
        "tle_line1": "1 41167U 15077B   25335.23573297  .00005412  00000+0  20076-3 0  9994",
        "tle_line2": "2 41167  14.9809 296.4925 0008735 328.0213  31.9579 15.21492496550884"
      },
      "geometry": {
        "type": "Point",
        "coordinates": [
          5.5614906717681105,
          14.600708940875874
        ]
      }
    },
    {
      "type": "Feature",
      "properties": {
        "norad_id": 41194,
        "name": "GAOFEN-4",
        "group": "resource",
        "lat": -0.06942049520623507,
        "lon": -75.39805887242547,
        "alt_km": 35788.38653097594,
        "timestamp": "2025-12-02T07:10:08.766577+00:00",
        "meta_object_name": "GAOFEN-4",
        "meta_object_id": "2015-083A",
        "meta_epoch": "2025-12-02T01:52:21.643392",
        "meta_mean_motion": 1.00267088,
        "meta_eccentricity": 0.0003519,
        "meta_inclination": 0.1407,
        "meta_ra_of_asc_node": 80.5688,
        "meta_arg_of_pericenter": 110.0556,
        "meta_mean_anomaly": 14.3058,
        "meta_ephemeris_type": 0,
        "meta_classification_type": "U",
        "meta_norad_cat_id": 41194,
        "meta_element_set_no": 999,
        "meta_rev_at_epoch": 3655,
        "meta_bstar": 0,
        "meta_mean_motion_dot": -3.13e-06,
        "meta_mean_motion_ddot": 0,
        "tle_line1": "1 41194U 15083A   25336.07802828 -.00000313  00000+0  00000+0 0  9996",
        "tle_line2": "2 41194   0.1407  80.5688 0003519 110.0556  14.3058  1.00267088 36556"
      },
      "geometry": {
        "type": "Point",
        "coordinates": [
          -75.39805887242547,
          -0.06942049520623507
        ]
      }
    },
    {
      "type": "Feature",
      "properties": {
        "norad_id": 41240,
        "name": "JASON-3",
        "group": "resource",
        "lat": 20.596040965783597,
        "lon": -9.843250127544005,
        "alt_km": 1312.0126519756113,
        "timestamp": "2025-12-02T07:10:08.766588+00:00",
        "meta_object_name": "JASON-3",
        "meta_object_id": "2016-002A",
        "meta_epoch": "2025-12-01T19:10:12.039744",
        "meta_mean_motion": 12.87625854,
        "meta_eccentricity": 0.0007156,
        "meta_inclination": 66.0393,
        "meta_ra_of_asc_node": 180.8269,
        "meta_arg_of_pericenter": 270.2011,
        "meta_mean_anomaly": 89.8187,
        "meta_ephemeris_type": 0,
        "meta_classification_type": "U",
        "meta_norad_cat_id": 41240,
        "meta_element_set_no": 999,
        "meta_rev_at_epoch": 46183,
        "meta_bstar": 0.00020755,
        "meta_mean_motion_dot": -1e-07,
        "meta_mean_motion_ddot": 0,
        "tle_line1": "1 41240U 16002A   25335.79875046 -.00000010  00000+0  20755-3 0  9997",
        "tle_line2": "2 41240  66.0393 180.8269 0007156 270.2011  89.8187 12.87625854461837"
      },
      "geometry": {
        "type": "Point",
        "coordinates": [
          -9.843250127544005,
          20.596040965783597
        ]
      }
    },
    {
      "type": "Feature",
      "properties": {
        "norad_id": 41335,
        "name": "SENTINEL-3A",
        "group": "resource",
        "lat": 35.181873955402914,
        "lon": 35.32191307056804,
        "alt_km": 799.822744963275,
        "timestamp": "2025-12-02T07:10:08.766599+00:00",
        "meta_object_name": "SENTINEL-3A",
        "meta_object_id": "2016-011A",
        "meta_epoch": "2025-12-01T19:13:14.850912",
        "meta_mean_motion": 14.26739581,
        "meta_eccentricity": 0.0001006,
        "meta_inclination": 98.6222,
        "meta_ra_of_asc_node": 40.9717,
        "meta_arg_of_pericenter": 91.0384,
        "meta_mean_anomaly": 269.0911,
        "meta_ephemeris_type": 0,
        "meta_classification_type": "U",
        "meta_norad_cat_id": 41335,
        "meta_element_set_no": 999,
        "meta_rev_at_epoch": 50991,
        "meta_bstar": 8.3246e-05,
        "meta_mean_motion_dot": 1.58e-06,
        "meta_mean_motion_ddot": 0,
        "tle_line1": "1 41335U 16011A   25335.80086633  .00000158  00000+0  83246-4 0  9997",
        "tle_line2": "2 41335  98.6222  40.9717 0001006  91.0384 269.0911 14.26739581509915"
      },
      "geometry": {
        "type": "Point",
        "coordinates": [
          35.32191307056804,
          35.181873955402914
        ]
      }
    }
  ]
}